{
  "norad_id": 67780,
  "name": "KUIPER-00218",
  "history": [
    {
      "epoch": "2026-03-28T20:08:56.482368Z",
      "apogee_km": 463.4838587229169,
      "perigee_km": 453.32557811435345,
      "latitude_deg": 1.8777011631660614e-05,
      "longitude_deg": -1.5538554183950797,
      "height_km": 460.7368738353574,
      "semi_major_axis_km": 6836.541718418634,
      "eccentricity": 0.00074294,
      "inclination_deg": 51.8832,
      "raan_deg": 126.9357,
      "arg_perigee_deg": 108.1295,
      "mean_anomaly_deg": 252.0501,
      "mean_motion_rev_day": 15.35847374
    }
  ]
}